[{"OBJECT_NAME":"STARLINK-4608","OBJECT_ID":"2022-104AK","EPOCH":"2026-03-09T17:49:33.021984","MEAN_MOTION":15.08836947,"ECCENTRICITY":0.00013691,"INCLINATION":53.2167,"RA_OF_ASC_NODE":233.8378,"ARG_OF_PERICENTER":88.8509,"MEAN_ANOMALY":271.264,"EPHEMERIS_TYPE":0,"CLASSIFICATION_TYPE":"U","NORAD_CAT_ID":53621,"ELEMENT_SET_NO":999,"REV_AT_EPOCH":19564,"BSTAR":3.7606891e-5,"MEAN_MOTION_DOT":3.11e-6,"MEAN_MOTION_DDOT":0},{"OBJECT_NAME":"SL-8 DEB","OBJECT_ID":"1986-052E","EPOCH":"2026-03-08T09:24:38.203776","MEAN_MOTION":15.11223117,"ECCENTRICITY":0.00100672,"INCLINATION":74.0059,"RA_OF_ASC_NODE":66.8929,"ARG_OF_PERICENTER":314.4934,"MEAN_ANOMALY":45.5435,"EPHEMERIS_TYPE":0,"CLASSIFICATION_TYPE":"U","NORAD_CAT_ID":16867,"ELEMENT_SET_NO":999,"REV_AT_EPOCH":11371,"BSTAR":0.0018795551,"MEAN_MOTION_DOT":0.0003173,"MEAN_MOTION_DDOT":0}]
